NORAD_CAT_ID,OBJECT_NAME,OBJECT_TYPE,EPOCH,MEAN_MOTION,ECCENTRICITY,INCLINATION,RA_OF_ASC_NODE,ARG_OF_PERICENTER,MEAN_ANOMALY,BSTAR,MEAN_MOTION_DOT,MEAN_MOTION_DDOT,TLE_LINE0,TLE_LINE1,TLE_LINE2,SEMIMAJOR_AXIS,PERIOD,APOGEE,PERIGEE,DECAYED
55786.0,STARLINK-5823,PAYLOAD,2024-01-21 06:20:57,14.98324385,0.0003226,70.0017,7.2274,271.7733,88.3056,-7.5224e-05,-9.9e-06,0.0,0 STARLINK-5823,1 55786U 23028AX  24021.26455528 -.00000990  00000-0 -75224-4 0  9996,2 55786  70.0017   7.2274 0003226 271.7733  88.3056 14.98324385 50421,6950.21,96.107,574.317,569.833,0.0
55786.0,STARLINK-5823,PAYLOAD,2024-01-21 09:33:16,14.98292661,0.0002988,70.0012,6.8883,268.4693,91.6123,-0.00044129,-5.349e-05,0.0,0 STARLINK-5823,1 55786U 23028AX  24021.39810535 -.00005349  00000-0 -44129-3 0  9995,2 55786  70.0012   6.8883 0002988 268.4693  91.6123 14.98292661 50433,6950.308,96.109,574.25,570.097,0.0
55786.0,STARLINK-5823,PAYLOAD,2024-01-21 22:22:20,14.98304886,0.0003456,70.0025,5.5434,274.8268,85.2496,-0.00016857,-2.103e-05,0.0,0 STARLINK-5823,1 55786U 23028AX  24021.93217627 -.00002103  00000-0 -16857-3 0  9990,2 55786  70.0025   5.5434 0003456 274.8268  85.2496 14.98304886 50520,6950.271,96.109,574.538,569.734,0.0
55786.0,STARLINK-5823,PAYLOAD,2024-01-22 01:34:35,14.98308144,0.0003748,70.0053,5.2127,286.6794,73.3954,-5.3817e-05,-7.35e-06,0.0,0 STARLINK-5823,1 55786U 23028AX  24022.06569379 -.00000735  00000-0 -53817-4 0  9996,2 55786  70.0053   5.2127 0003748 286.6794  73.3954 14.98308144 50535,6950.26,96.108,574.73,569.521,0.0
55786.0,STARLINK-5823,PAYLOAD,2024-01-22 06:22:59,14.98316582,0.0002387,70.0038,4.7041,254.9822,105.1073,-1.4789e-05,-2.69e-06,0.0,0 STARLINK-5823,1 55786U 23028AX  24022.26596773 -.00000269  00000-0 -14789-4 0  9993,2 55786  70.0038   4.7041 0002387 254.9822 105.1073 14.98316582 50570,6950.234,96.108,573.758,570.44,0.0
55786.0,STARLINK-5823,PAYLOAD,2024-01-22 07:59:07,14.98321762,0.0002579,70.0018,4.5328,258.7872,101.2998,-1.2724e-05,-2.45e-06,0.0,0 STARLINK-5823,1 55786U 23028AX  24022.33272425 -.00000245  00000-0 -12724-4 0  9997,2 55786  70.0018   4.5328 0002579 258.7872 101.2998 14.98321762 50573,6950.218,96.108,573.876,570.291,0.0
55786.0,STARLINK-5823,PAYLOAD,2024-01-23 03:12:42,14.98337964,0.0002918,70.0019,2.5136,267.2732,92.8093,0.00016437,1.869e-05,0.0,0 STARLINK-5823,1 55786U 23028AX  24023.13382782  .00001869  00000-0  16437-3 0  9999,2 55786  70.0019   2.5136 0002918 267.2732  92.8093 14.98337964 50691,6950.168,96.106,574.061,570.005,0.0
55786.0,STARLINK-5823,PAYLOAD,2024-01-23 06:24:58,14.98339111,0.0002521,70.0031,2.1784,247.8014,112.2878,0.0002027,2.327e-05,0.0,0 STARLINK-5823,1 55786U 23028AX  24023.26734494  .00002327  00000-0  20270-3 0  9994,2 55786  70.0031   2.1784 0002521 247.8014 112.2878 14.98339111 50725,6950.165,96.106,573.782,570.278,0.0
55786.0,STARLINK-5823,PAYLOAD,2024-01-23 08:01:06,14.98340512,0.0002515,70.003,2.0099,248.6115,111.4775,0.00021184,2.436e-05,0.0,0 STARLINK-5823,1 55786U 23028AX  24023.33410352  .00002436  00000-0  21184-3 0  9992,2 55786  70.0030   2.0099 0002515 248.6115 111.4775 14.98340512 50731,6950.16,96.106,573.773,570.277,0.0
55786.0,STARLINK-5823,PAYLOAD,2024-01-24 03:14:43,14.9833549,0.0002772,70.0029,359.9914,254.4537,105.6316,0.00010402,1.149e-05,0.0,0 STARLINK-5823,1 55786U 23028AX  24024.13522823  .00001149  00000-0  10402-3 0  9999,2 55786  70.0029 359.9914 0002772 254.4537 105.6316 14.98335490 50844,6950.176,96.107,573.968,570.114,0.0
55786.0,STARLINK-5823,PAYLOAD,2024-01-24 08:03:07,14.98337638,0.0002757,70.0019,359.4838,257.4731,102.612,8.3733e-05,9.06e-06,0.0,0 STARLINK-5823,1 55786U 23028AX  24024.33550695  .00000906  00000-0  83733-4 0  9997,2 55786  70.0019 359.4838 0002757 257.4731 102.6120 14.98337638 50885,6950.169,96.107,573.95,570.118,0.0
55786.0,STARLINK-5823,PAYLOAD,2024-01-24 22:28:20,14.98341393,0.000233,70.0034,357.9705,242.1321,117.9602,-0.00010572,-1.354e-05,0.0,0 STARLINK-5823,1 55786U 23028AX  24024.93634559 -.00001354  00000-0 -10572-3 0  9995,2 55786  70.0034 357.9705 0002330 242.1321 117.9602 14.98341393 50978,6950.158,96.106,573.642,570.403,0.0
55786.0,STARLINK-5823,PAYLOAD,2024-01-25 03:16:44,14.9833547,0.000253,70.0027,357.4654,246.1977,113.8917,-0.00018372,-2.285e-05,0.0,0 STARLINK-5823,1 55786U 23028AX  24025.13663038 -.00002285  00000-0 -18372-3 0  9992,2 55786  70.0027 357.4654 0002530 246.1977 113.8917 14.98335470 50996,6950.176,96.107,573.799,570.283,0.0
55786.0,STARLINK-5823,PAYLOAD,2024-01-25 08:05:09,14.98327832,0.0001611,70.0045,356.9613,282.3662,77.7317,-0.0001907,-2.367e-05,0.0,0 STARLINK-5823,1 55786U 23028AX  24025.33691860 -.00002367  00000-0 -19070-3 0  9995,2 55786  70.0045 356.9613 0001611 282.3662  77.7317 14.98327832 51027,6950.2,96.107,573.184,570.945,0.0
55786.0,STARLINK-5823,PAYLOAD,2024-01-25 22:30:21,14.98332047,0.0002719,70.0015,355.4441,265.377,94.7079,-8.3944e-05,-1.094e-05,0.0,0 STARLINK-5823,1 55786U 23028AX  24025.93774800 -.00001094  00000-0 -83944-4 0  9995,2 55786  70.0015 355.4441 0002719 265.3770  94.7079 14.98332047 51127,6950.187,96.107,573.941,570.162,0.0
55786.0,STARLINK-5823,PAYLOAD,2024-01-26 01:42:37,14.98332316,0.0002838,70.0015,355.1069,266.1894,93.894,-6.169e-05,-8.29e-06,0.0,0 STARLINK-5823,1 55786U 23028AX  24026.07126673 -.00000829  00000-0 -61690-4 0  9999,2 55786  70.0015 355.1069 0002838 266.1894  93.8940 14.98332316 51135,6950.186,96.107,574.023,570.078,0.0
55786.0,STARLINK-5823,PAYLOAD,2024-01-26 08:07:09,14.98336661,0.0002859,70.0014,354.4343,264.5737,95.5096,-2.0448e-05,-3.37e-06,0.0,0 STARLINK-5823,1 55786U 23028AX  24026.33830208 -.00000337  00000-0 -20448-4 0  9994,2 55786  70.0014 354.4343 0002859 264.5737  95.5096 14.98336661 51185,6950.172,96.107,574.024,570.05,0.0
55786.0,STARLINK-5823,PAYLOAD,2024-01-27 01:44:38,14.98326017,0.0002679,70.0019,352.5821,266.7147,93.3705,2.887e-05,2.52e-06,0.0,0 STARLINK-5823,1 55786U 23028AX  24027.07266736  .00000252  00000-0  28870-4 0  9996,2 55786  70.0019 352.5821 0002679 266.7147  93.3705 14.98326017 51287,6950.205,96.107,573.932,570.208,0.0
55786.0,STARLINK-5823,PAYLOAD,2024-01-27 08:09:10,14.98328845,0.0002639,70.002,351.9086,265.415,94.6707,6.0074e-05,6.24e-06,0.0,0 STARLINK-5823,1 55786U 23028AX  24027.33970505  .00000624  00000-0  60074-4 0  9996,2 55786  70.0020 351.9086 0002639 265.4150  94.6707 14.98328845 51334,6950.196,96.107,573.896,570.227,0.0
55786.0,STARLINK-5823,PAYLOAD,2024-01-27 22:34:23,14.98330345,0.0002579,70.0023,350.3947,252.0011,108.0867,-3.6201e-06,-1.36e-06,0.0,0 STARLINK-5823,1 55786U 23028AX  24027.94054538 -.00000136  00000-0 -36201-5 0  9998,2 55786  70.0023 350.3947 0002579 252.0011 108.0867 14.98330345 51422,6950.192,96.107,573.849,570.264,0.0
55786.0,STARLINK-5823,PAYLOAD,2024-01-28 04:58:55,14.98329406,0.000262,70.0021,349.7216,249.1124,110.9755,-1.5939e-05,-2.83e-06,0.0,0 STARLINK-5823,1 55786U 23028AX  24028.20758615 -.00000283  00000-0 -15939-4 0  9992,2 55786  70.0021 349.7216 0002620 249.1124 110.9755 14.98329406 51457,6950.195,96.107,573.881,570.239,0.0
55786.0,STARLINK-5823,PAYLOAD,2024-01-28 06:35:03,14.98328761,0.0002623,70.0021,349.5532,249.9489,110.1388,-2.3402e-05,-3.72e-06,0.0,0 STARLINK-5823,1 55786U 23028AX  24028.27434686 -.00000372  00000-0 -23402-4 0  9991,2 55786  70.0021 349.5532 0002623 249.9489 110.1388 14.98328761 51470,6950.197,96.107,573.885,570.239,0.0
55786.0,STARLINK-5823,PAYLOAD,2024-01-28 22:36:24,14.98330038,0.0002657,70.002,347.8698,249.9141,110.1733,-1.811e-06,-1.15e-06,0.0,0 STARLINK-5823,1 55786U 23028AX  24028.94194550 -.00000115  00000-0 -18110-5 0  9994,2 55786  70.0020 347.8698 0002657 249.9141 110.1733 14.98330038 51570,6950.193,96.107,573.904,570.211,0.0
55786.0,STARLINK-5823,PAYLOAD,2024-01-29 06:37:04,14.98333492,0.0002858,70.0007,347.0264,263.0179,97.0655,1.9566e-05,1.41e-06,0.0,0 STARLINK-5823,1 55786U 23028AX  24029.27574290  .00000141  00000-0  19566-4 0  9996,2 55786  70.0007 347.0264 0002858 263.0179  97.0655 14.98333492 51615,6950.182,96.107,574.033,570.061,0.0
55786.0,STARLINK-5823,PAYLOAD,2024-01-30 03:26:49,14.98327995,0.0002839,70.0004,344.8391,264.8282,95.2553,-4.5535e-05,-6.36e-06,0.0,0 STARLINK-5823,1 55786U 23028AX  24030.14362860 -.00000636  00000-0 -45535-4 0  9998,2 55786  70.0004 344.8391 0002839 264.8282  95.2553 14.98327995 51743,6950.199,96.107,574.037,570.091,0.0
55786.0,STARLINK-5823,PAYLOAD,2024-01-30 06:39:05,14.98328079,0.0002833,70.0005,344.5024,266.0943,93.9892,-2.302e-05,-3.68e-06,0.0,0 STARLINK-5823,1 55786U 23028AX  24030.27714823 -.00000368  00000-0 -23020-4 0  9999,2 55786  70.0005 344.5024 0002833 266.0943  93.9892 14.98328079 51774,6950.199,96.107,574.033,570.095,0.0
55786.0,STARLINK-5823,PAYLOAD,2024-01-30 22:40:25,14.98333581,0.0002829,70.0003,342.8195,267.4859,92.5976,4.8337e-06,-3.5e-07,0.0,0 STARLINK-5823,1 55786U 23028AX  24030.94474404 -.00000035  00000-0  48337-5 0  9990,2 55786  70.0003 342.8195 0002829 267.4859  92.5976 14.98333581 51871,6950.182,96.107,574.013,570.081,0.0
55786.0,STARLINK-5823,PAYLOAD,2024-01-31 03:28:50,14.98333594,0.0002823,70.0004,342.3142,267.2325,92.8511,6.7351e-06,-1.3e-07,0.0,0 STARLINK-5823,1 55786U 23028AX  24031.14502352 -.00000013  00000-0  67351-5 0  9990,2 55786  70.0004 342.3142 0002823 267.2325  92.8511 14.98333594 51893,6950.182,96.107,574.009,570.085,0.0
55786.0,STARLINK-5823,PAYLOAD,2024-01-31 06:41:06,14.98334864,0.0002807,70.0005,341.9779,267.2312,92.8526,2.2247e-05,1.73e-06,0.0,0 STARLINK-5823,1 55786U 23028AX  24031.27854196  .00000173  00000-0  22247-4 0  9990,2 55786  70.0005 341.9779 0002807 267.2312  92.8526 14.98334864 51924,6950.178,96.107,573.994,570.092,0.0
55786.0,STARLINK-5823,PAYLOAD,2024-01-31 19:30:10,14.98331144,0.0002724,70.001,340.6319,270.9,89.1847,9.9792e-06,2.6e-07,0.0,0 STARLINK-5823,1 55786U 23028AX  24031.81262485  .00000026  00000-0  99792-5 0  9991,2 55786  70.0010 340.6319 0002724 270.9000  89.1847 14.98331144 52002,6950.189,96.107,573.948,570.161,0.0
